{
  "type": "FeatureCollection",
  "generator": "overpass-turbo",
  "copyright": "The data included in this document is from www.openstreetmap.org. The data is made available under ODbL.",
  "timestamp": "2026-08-27T23:36:06Z",
  "features": [
    {
      "type": "Feature",
      "properties": {
        "@id": "node/236578383",
        "contact:website": "https://www.jreast.co.jp/estation/station/info.aspx?StationCd=355",
        "name": "御徒町",
        "name:de": "Okachimachi",
        "name:en": "Okachimachi",
        "name:es": "Okachimachi",
        "name:fr": "Okachimachi",
        "name:it": "Okachimachi",
        "name:ja": "御徒町",
        "name:ja-Hira": "おかちまち",
        "name:ja-Latn": "Okachimachi",
        "name:ko": "오카치마치",
        "name:ru": "Окатимати",
        "name:th": "โอคาจิมาจิ",
        "name:zh": "御徒町",
        "name:zh-Hans": "御徒町",
        "operator": "東日本旅客鉄道",
        "operator:en": "East Japan Railway Company",
        "operator:ja": "東日本旅客鉄道",
        "operator:wikidata": "Q499071",
        "public_transport": "station",
        "railway": "station",
        "ref": "JK29;JY04",
        "train": "yes",
        "wikidata": "Q801296",
        "wikipedia": "ja:御徒町駅"
      },
      "geometry": {
        "type": "Point",
        "coordinates": [
          139.7746303,
          35.7069531
        ]
      },
      "id": "node/236578383"
    },
    {
      "type": "Feature",
      "properties": {
        "@id": "node/236578444",
        "contact:website": "https://www.jreast.co.jp/estation/station/info.aspx?StationCd=204",
        "highspeed": "yes",
        "name": "上野",
        "name:de": "Ueno",
        "name:en": "Ueno",
        "name:es": "Ueno",
        "name:fr": "Ueno",
        "name:it": "Ueno",
        "name:ja": "上野",
        "name:ja-Hira": "うえの",
        "name:ja-Latn": "Ueno",
        "name:ko": "우에노",
        "name:ru": "Уэно",
        "name:th": "อุเอโนะ",
        "operator": "東日本旅客鉄道",
        "operator:en": "East Japan Railway Company",
        "operator:ja": "東日本旅客鉄道",
        "operator:wikidata": "Q499071",
        "public_transport": "station",
        "railway": "station",
        "ref": "UEN",
        "source": "KSJ2",
        "toilets:wheelchair": "yes",
        "train": "yes",
        "wheelchair": "yes",
        "wikidata": "Q801551",
        "wikipedia": "ja:上野駅"
      },
      "geometry": {
        "type": "Point",
        "coordinates": [
          139.7765418,
          35.7134128
        ]
      },
      "id": "node/236578444"
    },
    {
      "type": "Feature",
      "properties": {
        "@id": "node/236578577",
        "contact:website": "https://www.jreast.co.jp/estation/station/info.aspx?StationCd=209",
        "name": "鶯谷",
        "name:de": "Uguisudani",
        "name:en": "Uguisudani",
        "name:es": "Uguisudani",
        "name:fr": "Uguisudani",
        "name:it": "Uguisudani",
        "name:ja": "鶯谷",
        "name:ja-Hira": "うぐいすだに",
        "name:ja-Latn": "Uguisudani",
        "name:ko": "우구이스다니",
        "name:ru": "Угуисудани",
        "name:th": "อุกุยสึดานิ",
        "operator": "東日本旅客鉄道",
        "operator:en": "East Japan Railway Company",
        "operator:ja": "東日本旅客鉄道",
        "operator:wikidata": "Q499071",
        "public_transport": "station",
        "railway": "station",
        "ref": "JK31;JY06",
        "toilets:wheelchair": "yes",
        "train": "yes",
        "wheelchair": "yes",
        "wikidata": "Q801546",
        "wikipedia": "ja:鶯谷駅"
      },
      "geometry": {
        "type": "Point",
        "coordinates": [
          139.7779166,
          35.7217035
        ]
      },
      "id": "node/236578577"
    },
    {
      "type": "Feature",
      "properties": {
        "@id": "node/236578667",
        "contact:website": "https://www.jreast.co.jp/estation/station/info.aspx?StationCd=1184",
        "name": "日暮里",
        "name:en": "Nippori",
        "name:es": "Nippori",
        "name:fr": "Nippori",
        "name:it": "Nippori",
        "name:ja-Hira": "にっぽり",
        "name:ja-Latn": "Nippori",
        "name:ko": "닛포리",
        "name:ru": "Ниппори",
        "name:th": "นิปโปริ",
        "official_name": "JR東日本日暮里",
        "official_name:en": "JR East Nippori",
        "official_name:fr": "JR Est Nippori",
        "official_name:ja-Hira": "JR ひがしにっぽん にっぽり",
        "official_name:ja-Latn": "JR Higashi-nippon Nippori",
        "operator": "東日本旅客鉄道",
        "operator:en": "East Japan Railway Company",
        "operator:ja": "東日本旅客鉄道",
        "operator:wikidata": "Q499071",
        "public_transport": "station",
        "railway": "station",
        "ref": "NPR",
        "toilets:wheelchair": "yes",
        "train": "yes",
        "wheelchair": "yes",
        "wikidata": "Q124799406"
      },
      "geometry": {
        "type": "Point",
        "coordinates": [
          139.7706579,
          35.7281495
        ]
      },
      "id": "node/236578667"
    },
    {
      "type": "Feature",
      "properties": {
        "@id": "node/236578741",
        "contact:website": "https://www.jreast.co.jp/estation/station/info.aspx?StationCd=1167",
        "name": "西日暮里",
        "name:en": "Nishi-Nippori",
        "name:es": "Nishi-Nippori",
        "name:fr": "Nishi-Nippori",
        "name:it": "Nishi-Nippori",
        "name:ja": "西日暮里",
        "name:ja-Hira": "にしにっぽり",
        "name:ja-Latn": "Nishi Nippori",
        "name:ko": "니시닛포리",
        "name:ru": "Ниси-Ниппори",
        "name:th": "นิชิ-นิปโปริ",
        "network": "東京近郊区間",
        "operator": "東日本旅客鉄道",
        "operator:en": "East Japan Railway Company",
        "operator:ja": "東日本旅客鉄道",
        "operator:wikidata": "Q499071",
        "public_transport": "station",
        "railway": "station",
        "ref": "JK33;JY08",
        "subway": "no",
        "train": "yes",
        "wikidata": "Q636845",
        "wikipedia": "ja:西日暮里駅"
      },
      "geometry": {
        "type": "Point",
        "coordinates": [
          139.7666684,
          35.7322021
        ]
      },
      "id": "node/236578741"
    },
    {
      "type": "Feature",
      "properties": {
        "@id": "node/236578838",
        "contact:website": "https://www.jreast.co.jp/estation/station/info.aspx?StationCd=972",
        "name": "田端",
        "name:en": "Tabata",
        "name:fr": "Tabata",
        "name:it": "Tabata",
        "name:ja": "田端",
        "name:ja-Hira": "たばた",
        "name:ja-Latn": "Tabata",
        "name:ko": "다바타",
        "name:ru": "Табата",
        "name:th": "ทาบาตะ",
        "operator": "東日本旅客鉄道",
        "operator:en": "East Japan Railway Company",
        "operator:ja": "東日本旅客鉄道",
        "operator:wikidata": "Q499071",
        "public_transport": "station",
        "railway": "station",
        "ref": "JY09;JK34",
        "toilets:wheelchair": "yes",
        "wheelchair": "yes",
        "wikidata": "Q801503",
        "wikipedia": "ja:田端駅"
      },
      "geometry": {
        "type": "Point",
        "coordinates": [
          139.761707,
          35.7373723
        ]
      },
      "id": "node/236578838"
    },
    {
      "type": "Feature",
      "properties": {
        "@id": "node/236579053",
        "contact:website": "https://www.jreast.co.jp/estation/station/info.aspx?StationCd=712",
        "name": "駒込",
        "name:en": "Komagome",
        "name:es": "Komagome",
        "name:fr": "Komagome",
        "name:it": "Komagome",
        "name:ja": "駒込",
        "name:ja-Hira": "こまごめ",
        "name:ja-Latn": "Komagome",
        "name:ko": "고마고메",
        "name:ru": "Комагомэ",
        "name:th": "โคมาโกเมะ",
        "operator": "東日本旅客鉄道",
        "operator:en": "East Japan Railway Company",
        "operator:ja": "東日本旅客鉄道",
        "operator:wikidata": "Q499071",
        "public_transport": "station",
        "railway": "station",
        "ref": "JY10",
        "train": "yes",
        "wikidata": "Q801032",
        "wikipedia": "ja:駒込駅"
      },
      "geometry": {
        "type": "Point",
        "coordinates": [
          139.7472412,
          35.7365848
        ]
      },
      "id": "node/236579053"
    },
    {
      "type": "Feature",
      "properties": {
        "@id": "node/236579126",
        "contact:website": "https://www.jreast.co.jp/estation/station/info.aspx?StationCd=896",
        "name": "巣鴨",
        "name:en": "Sugamo",
        "name:es": "Sugamo",
        "name:fr": "Sugamo",
        "name:it": "Sugamo",
        "name:ja": "巣鴨",
        "name:ja-Hira": "すがも",
        "name:ja-Latn": "Sugamo",
        "name:ko": "스가모",
        "name:ru": "Сугамо",
        "name:th": "ซูกาโม่",
        "operator": "東日本旅客鉄道",
        "operator:en": "East Japan Railway Company",
        "operator:ja": "東日本旅客鉄道",
        "operator:wikidata": "Q499071",
        "public_transport": "station",
        "railway": "station",
        "ref": "JY11",
        "toilets": "yes",
        "toilets:access": "public",
        "toilets:unisex": "no",
        "wikidata": "Q801500",
        "wikipedia": "ja:巣鴨駅"
      },
      "geometry": {
        "type": "Point",
        "coordinates": [
          139.7394273,
          35.7334119
        ]
      },
      "id": "node/236579126"
    },
    {
      "type": "Feature",
      "properties": {
        "@id": "node/236579274",
        "contact:website": "https://www.jreast.co.jp/estation/station/info.aspx?StationCd=330",
        "name": "大塚",
        "name:en": "Otsuka",
        "name:it": "Otsuka",
        "name:ja": "大塚",
        "name:ja-Latn": "Ōtsuka",
        "name:ko": "오츠카",
        "name:ru": "Оцука",
        "name:th": "โอสึกะ",
        "operator": "東日本旅客鉄道",
        "operator:en": "East Japan Railway Company",
        "operator:ja": "東日本旅客鉄道",
        "operator:wikidata": "Q499071",
        "public_transport": "station",
        "railway": "station",
        "ref": "JY12",
        "train": "yes",
        "wikidata": "Q801696",
        "wikipedia": "ja:大塚駅 (東京都)"
      },
      "geometry": {
        "type": "Point",
        "coordinates": [
          139.7285879,
          35.7316851
        ]
      },
      "id": "node/236579274"
    },
    {
      "type": "Feature",
      "properties": {
        "@id": "node/236579696",
        "contact:website": "https://www.jreast.co.jp/estation/station/info.aspx?StationCd=857",
        "name": "新大久保",
        "name:en": "Shin-Ōkubo",
        "name:fr": "Shin-Ōkubo",
        "name:it": "Shin-Okubo",
        "name:ja-Hira": "しんおおくぼ",
        "name:ja-Latn": "Shin-Ōkubo",
        "name:ko": "신오쿠보",
        "name:ru": "Син-Окубо",
        "name:th": "ชินโอคุโบะ",
        "name:zh": "新大久保",
        "operator": "東日本旅客鉄道",
        "operator:en": "East Japan Railway Company",
        "operator:ja": "東日本旅客鉄道",
        "operator:wikidata": "Q499071",
        "public_transport": "station",
        "railway": "station",
        "ref": "JY16",
        "wheelchair": "yes",
        "wikidata": "Q589599",
        "wikipedia": "ja:新大久保駅"
      },
      "geometry": {
        "type": "Point",
        "coordinates": [
          139.7002421,
          35.7013007
        ]
      },
      "id": "node/236579696"
    },
    {
      "type": "Feature",
      "properties": {
        "@id": "node/240510683",
        "name": "三河島",
        "name:en": "Mikawashima",
        "name:es": "Mikawashima",
        "name:ja": "三河島",
        "name:ja-Hira": "みかわしま",
        "name:ja-Latn": "Mikawashima",
        "name:ko": "미카와시마",
        "name:th": "มิกะวะชิมะ",
        "operator": "東日本旅客鉄道",
        "operator:en": "East Japan Railway Company",
        "public_transport": "station",
        "railway": "station",
        "ref": "JJ03",
        "train": "yes",
        "wheelchair": "yes",
        "wikidata": "Q865170",
        "wikipedia": "ja:三河島駅"
      },
      "geometry": {
        "type": "Point",
        "coordinates": [
          139.7773921,
          35.7333434
        ]
      },
      "id": "node/240510683"
    },
    {
      "type": "Feature",
      "properties": {
        "@id": "node/241815384",
        "contact:website": "https://www.jreast.co.jp/estation/station/info.aspx?StationCd=319",
        "name": "大崎",
        "name:en": "Osaki",
        "name:es": "Osaki",
        "name:it": "Osaki",
        "name:ja": "大崎",
        "name:ja-Hira": "おおさき",
        "name:ja-Latn": "Ōsaki",
        "name:ko": "오사키",
        "name:ru": "Осаки",
        "name:th": "โอซากิ",
        "network": "りんかい線",
        "operator": "東日本旅客鉄道;東京臨海高速鉄道",
        "public_transport": "station",
        "railway": "station",
        "ref": "OSK",
        "train": "yes",
        "wheelchair": "yes",
        "wikidata": "Q801695",
        "wikipedia": "ja:大崎駅"
      },
      "geometry": {
        "type": "Point",
        "coordinates": [
          139.7284866,
          35.6193903
        ]
      },
      "id": "node/241815384"
    },
    {
      "type": "Feature",
      "properties": {
        "@id": "node/241896099",
        "contact:website": "https://www.jreast.co.jp/estation/station/info.aspx?StationCd=808",
        "name": "渋谷",
        "name:en": "Shibuya",
        "name:es": "Shibuya",
        "name:fr": "Shibuya",
        "name:it": "Shibuya",
        "name:ja": "渋谷",
        "name:ja-Latn": "Shibuya",
        "name:ko": "시부야",
        "name:ru": "Сибуя",
        "name:th": "ชิบูยะ",
        "name:zh": "涩谷",
        "operator": "東日本旅客鉄道",
        "operator:en": "East Japan Railway",
        "public_transport": "station",
        "railway": "station",
        "ref": "SBY",
        "train": "yes",
        "wheelchair": "yes",
        "wikidata": "Q428811",
        "wikipedia": "ja:渋谷駅"
      },
      "geometry": {
        "type": "Point",
        "coordinates": [
          139.7017647,
          35.65808
        ]
      },
      "id": "node/241896099"
    },
    {
      "type": "Feature",
      "properties": {
        "@id": "node/427973657",
        "contact:website": "https://www.jreast.co.jp/estation/station/info.aspx?StationCd=695",
        "name": "五反田",
        "name:en": "Gotanda",
        "name:es": "Gotanda",
        "name:it": "Gotanda",
        "name:ja": "五反田",
        "name:ja-Hira": "ごたんだ",
        "name:ja-Latn": "Gotanda",
        "name:ko": "고탄다",
        "name:ru": "Готанда",
        "name:th": "โกทันดะ",
        "operator": "東日本旅客鉄道",
        "operator:en": "East Japan Railway Company",
        "operator:ja": "東日本旅客鉄道",
        "operator:wikidata": "Q499071",
        "public_transport": "station",
        "railway": "station",
        "ref": "JY23",
        "toilets:wheelchair": "yes",
        "train": "yes",
        "wheelchair": "yes",
        "wikidata": "Q736018",
        "wikipedia": "ja:五反田駅"
      },
      "geometry": {
        "type": "Point",
        "coordinates": [
          139.7236303,
          35.6262562
        ]
      },
      "id": "node/427973657"
    },
    {
      "type": "Feature",
      "properties": {
        "@id": "node/832289046",
        "contact:website": "https://www.jreast.co.jp/estation/station/info.aspx?StationCd=1553",
        "int_name": "Mejiro",
        "name": "目白",
        "name:en": "Mejiro",
        "name:fr": "Mejiro",
        "name:it": "Mejiro",
        "name:ja": "目白",
        "name:ja-Hira": "めじろ",
        "name:ja-Latn": "Mejiro",
        "name:ko": "메지로 역",
        "name:ru": "Мэдзиро",
        "name:th": "เมจิโระ",
        "name:zh": "目白",
        "operator": "東日本旅客鉄道",
        "operator:en": "East Japan Railway Company",
        "operator:ja": "東日本旅客鉄道",
        "operator:wikidata": "Q499071",
        "public_transport": "station",
        "railway": "station",
        "ref": "JY14",
        "train": "yes",
        "wikidata": "Q375154",
        "wikipedia": "ja:目白駅"
      },
      "geometry": {
        "type": "Point",
        "coordinates": [
          139.7064645,
          35.7211919
        ]
      },
      "id": "node/832289046"
    },
    {
      "type": "Feature",
      "properties": {
        "@id": "node/1152742616",
        "maxspeed": "95",
        "name": "亀戸",
        "name:en": "Kameido",
        "name:it": "Kameido",
        "name:ja": "亀戸",
        "name:ja-Hira": "かめいど",
        "name:ja-Latn": "Kameido",
        "name:ko": "가메이도",
        "name:ru": "Камэйдо",
        "note": "National-Land Numerical Information (Railway) 2007, MLIT Japan",
        "operator": "東日本旅客鉄道",
        "public_transport": "station",
        "railway": "station",
        "ref": "JB23",
        "source": "KSJ2",
        "source_ref": "http://w3land.mlit.go.jp/ksj2/datalist/N02.html",
        "wheelchair": "yes",
        "wikidata": "Q1036376",
        "wikipedia": "ja:亀戸駅"
      },
      "geometry": {
        "type": "Point",
        "coordinates": [
          139.8267025,
          35.6973327
        ]
      },
      "id": "node/1152742616"
    },
    {
      "type": "Feature",
      "properties": {
        "@id": "node/1314411833",
        "name": "南千住",
        "name:en": "Minami-Senju",
        "name:fr": "Minami-Senju",
        "name:ja": "南千住",
        "name:ja-Hira": "みなみせんじゅ",
        "name:ja-Latn": "Minami Senju",
        "name:ko": "미나미센주",
        "name:ru": "Минами-Сендзю",
        "operator": "東日本旅客鉄道",
        "operator:en": "East Japan Railway Company",
        "public_transport": "station",
        "railway": "station",
        "ref": "JJ04",
        "wheelchair": "yes",
        "wikidata": "Q80570",
        "wikipedia": "ja:南千住駅"
      },
      "geometry": {
        "type": "Point",
        "coordinates": [
          139.7990144,
          35.7333017
        ]
      },
      "id": "node/1314411833"
    },
    {
      "type": "Feature",
      "properties": {
        "@id": "node/1640176211",
        "name": "浮間舟渡",
        "name:en": "Ukimafunado",
        "name:ja": "浮間舟渡",
        "name:ja-Hira": "うきまふなど",
        "name:ko": "우키마후나도",
        "operator": "東日本旅客鉄道",
        "platforms": "1",
        "public_transport": "station",
        "railway": "station",
        "ref": "JA17",
        "source": "Bing",
        "wikidata": "Q844434",
        "wikipedia": "ja:浮間舟渡駅"
      },
      "geometry": {
        "type": "Point",
        "coordinates": [
          139.6915101,
          35.7911796
        ]
      },
      "id": "node/1640176211"
    },
    {
      "type": "Feature",
      "properties": {
        "@id": "node/1646881158",
        "name": "北赤羽",
        "name:en": "Kita-Akabane",
        "name:ja": "北赤羽",
        "name:ja-Hira": "きたあかばね",
        "name:ko": "기타아카바네",
        "operator": "東日本旅客鉄道",
        "public_transport": "station",
        "railway": "station",
        "ref": "JA16",
        "source": "Bing",
        "wikidata": "Q844401",
        "wikipedia": "ja:北赤羽駅"
      },
      "geometry": {
        "type": "Point",
        "coordinates": [
          139.7060288,
          35.7867812
        ]
      },
      "id": "node/1646881158"
    },
    {
      "type": "Feature",
      "properties": {
        "@id": "node/2149761647",
        "addr:block_number": "9",
        "addr:city": "千代田区",
        "addr:country": "JP",
        "addr:housenumber": "1",
        "addr:neighbourhood": "丸の内一丁目",
        "addr:postcode": "100-0005",
        "addr:province": "東京都",
        "full_name": "東京駅",
        "full_name:en": "Tokyo Station",
        "full_name:zh": "東京站",
        "name": "東京",
        "name:de": "Tokio",
        "name:en": "Tōkyō",
        "name:es": "Tokyo",
        "name:fr": "Tokyo",
        "name:it": "Tokyo",
        "name:ja": "東京",
        "name:ja-Hira": "とうきょう",
        "name:ja-Latn": "Tōkyō",
        "name:ko": "도쿄",
        "name:ru": "Токио",
        "name:th": "โตเกียว",
        "name:uk": "Токіо",
        "name:zh": "東京",
        "name:zh-Hans": "东京",
        "name:zh-Hant": "東京",
        "note": "This station is for non-high speed train (在来線 or zairaisen), such as chuo line, tokaido line, keihin tohoku line, yamanote line",
        "note:language": "\"name=Japanese (English)\" is wrong. Japanese only. 「name=日本語 (英語)」はダメです。",
        "note:operator": "\"JR\" is wrong. \"JR\" はダメです。National-Land Numerical Information (Railway) 2007, MLIT Japan.",
        "operator": "東日本旅客鉄道",
        "operator:en": "East Japan Railway",
        "operator:ja": "東日本旅客鉄道",
        "operator:ja_rm": "Higashi-Nihon Ryokaku Tetsudō",
        "public_transport": "station",
        "railway": "station",
        "ref": "TYO",
        "source": "KSJ2",
        "source_ref": "http://nlftp.mlit.go.jp/ksj/jpgis/datalist/KsjTmplt-N02-v1_1.html",
        "train": "yes",
        "usage": "main",
        "voltage": "1500",
        "wheelchair": "yes",
        "wikidata": "Q283196",
        "wikipedia": "ja:東京駅"
      },
      "geometry": {
        "type": "Point",
        "coordinates": [
          139.766706,
          35.6812546
        ]
      },
      "id": "node/2149761647"
    },
    {
      "type": "Feature",
      "properties": {
        "@id": "node/2230287460",
        "name": "赤羽",
        "name:de": "Akabane",
        "name:en": "Akabane",
        "name:fr": "Akabane",
        "name:ja": "赤羽",
        "name:ja-Hira": "あかばね",
        "name:ja-Latn": "Akabane",
        "name:ko": "아카바네",
        "name:ru": "Акабане",
        "name:zh": "赤羽",
        "operator": "東日本旅客鉄道",
        "public_transport": "station",
        "railway": "station",
        "ref": "JA38;JU04;JA15;JS22",
        "train": "yes",
        "wheelchair": "yes",
        "wikidata": "Q800369",
        "wikipedia": "ja:赤羽駅"
      },
      "geometry": {
        "type": "Point",
        "coordinates": [
          139.7207999,
          35.7781394
        ]
      },
      "id": "node/2230287460"
    },
    {
      "type": "Feature",
      "properties": {
        "@id": "node/2250286185",
        "maxspeed": "95",
        "name": "小岩",
        "name:en": "Koiwa",
        "name:it": "Koiwa",
        "name:ja": "小岩",
        "name:ja-Hira": "こいわ",
        "name:ja-Latn": "Koiwa",
        "name:ko": "고이와",
        "name:ru": "Коива",
        "operator": "東日本旅客鉄道",
        "public_transport": "station",
        "railway": "station",
        "ref": "JB26",
        "wheelchair": "limited",
        "wikidata": "Q1067969",
        "wikipedia": "ja:小岩駅"
      },
      "geometry": {
        "type": "Point",
        "coordinates": [
          139.881843,
          35.7332364
        ]
      },
      "id": "node/2250286185"
    },
    {
      "type": "Feature",
      "properties": {
        "@id": "node/2389061844",
        "name": "新宿",
        "name:en": "Shinjuku",
        "name:es": "Shinjuku",
        "name:fr": "Shinjuku",
        "name:it": "Shinjuku",
        "name:ja": "新宿",
        "name:ja-Hira": "しんじゅく",
        "name:ja-Latn": "Shinjuku",
        "name:ja_rm": "Shinjuku",
        "name:ko": "신주쿠",
        "name:ru": "Синдзюку",
        "network": "JR成田エクスプレス",
        "operator": "東日本旅客鉄道;JR東日本",
        "operator:en": "East Japan Railway Company",
        "operator:ja": "東日本旅客鉄道",
        "operator:wikidata": "Q499071",
        "platforms": "1",
        "public_transport": "station",
        "railway": "station",
        "ref": "SJK",
        "source": "Bing 2010",
        "train": "yes",
        "wheelchair": "yes",
        "wikidata": "Q801447",
        "wikipedia": "ja:新宿駅"
      },
      "geometry": {
        "type": "Point",
        "coordinates": [
          139.7005142,
          35.6902618
        ]
      },
      "id": "node/2389061844"
    },
    {
      "type": "Feature",
      "properties": {
        "@id": "node/2558121904",
        "contact:website": "https://www.jreast.co.jp/estation/station/info.aspx?StationCd=290",
        "name": "恵比寿",
        "name:en": "Ebisu",
        "name:es": "Ebisu",
        "name:fr": "Ebisu",
        "name:it": "Ebisu",
        "name:ja": "恵比寿",
        "name:ja-Hira": "えびす",
        "name:ja-Latn": "Ebisu",
        "name:ko": "에비스",
        "name:ru": "Эбису",
        "name:th": "เอบิสึ",
        "operator": "東日本旅客鉄道",
        "operator:en": "East Japan Railway Company",
        "operator:ja": "東日本旅客鉄道",
        "operator:wikidata": "Q499071",
        "public_transport": "station",
        "railway": "station",
        "ref": "EBS",
        "source": "Bing,2007-04",
        "wheelchair": "yes",
        "wikidata": "Q800715",
        "wikipedia": "ja:恵比寿駅"
      },
      "geometry": {
        "type": "Point",
        "coordinates": [
          139.7102082,
          35.6464413
        ]
      },
      "id": "node/2558121904"
    },
    {
      "type": "Feature",
      "properties": {
        "@id": "node/2558121907",
        "internet_access": "wlan",
        "internet_access:fee": "no",
        "internet_access:ssid": "00_Monorail_Free_Wi-Fi",
        "name": "浜松町",
        "name:en": "Hamamatsucho",
        "name:fr": "Hamamatsuchō",
        "name:it": "Hamamatsucho",
        "name:ja": "浜松町",
        "name:ja-Hira": "はままつちょう",
        "name:ja-Latn": "Hamamatsuchō",
        "name:ko": "하마마츠초",
        "name:ru": "Хамамацутё",
        "name:th": "ฮามามัตสึโจ",
        "operator": "東日本旅客鉄道",
        "public_transport": "station",
        "railway": "station",
        "ref": "HMC",
        "train": "yes",
        "website": "https://www.jreast.co.jp/estation/station/info.aspx?StationCd=1248",
        "wheelchair": "yes",
        "wikidata": "Q800873",
        "wikipedia": "ja:浜松町駅"
      },
      "geometry": {
        "type": "Point",
        "coordinates": [
          139.7570622,
          35.6551111
        ]
      },
      "id": "node/2558121907"
    },
    {
      "type": "Feature",
      "properties": {
        "@id": "node/2558121915",
        "contact:website": "https://www.jreast.co.jp/estation/station/info.aspx?StationCd=108",
        "name": "池袋",
        "name:en": "Ikebukuro",
        "name:es": "Ikebukuro",
        "name:fr": "Ikebukuro",
        "name:it": "Ikebukuro",
        "name:ja": "池袋",
        "name:ja-Hira": "いけぶくろ",
        "name:ja-Latn": "Ikebukuro",
        "name:ko": "이케부쿠로 역",
        "name:ru": "Икебукуро",
        "name:th": "อิเคะบุคุโระ",
        "name:zh": "池袋",
        "operator": "東日本旅客鉄道",
        "operator:en": "East Japan Railway Company",
        "operator:ja": "東日本旅客鉄道",
        "operator:wikidata": "Q499071",
        "public_transport": "station",
        "railway": "station",
        "ref": "JA12;JS21;JY13",
        "wheelchair": "yes",
        "wikidata": "Q173919",
        "wikipedia": "ja:池袋駅"
      },
      "geometry": {
        "type": "Point",
        "coordinates": [
          139.7111512,
          35.730185
        ]
      },
      "id": "node/2558121915"
    },
    {
      "type": "Feature",
      "properties": {
        "@id": "node/2558121917",
        "alt_name:ko": "간다",
        "contact:website": "https://www.jreast.co.jp/estation/station/info.aspx?StationCD=538",
        "name": "神田",
        "name:de": "Kanda",
        "name:en": "Kanda",
        "name:es": "Kanda",
        "name:fr": "Kanda",
        "name:it": "Kanda",
        "name:ja": "神田",
        "name:ja-Hira": "かんだ",
        "name:ja-Latn": "Kanda",
        "name:ko": "칸다",
        "name:ru": "Канда",
        "name:th": "คันดะ",
        "name:zh": "神田",
        "name:zh-Hans": "神田",
        "operator": "東日本旅客鉄道",
        "operator:en": "East Japan Railway Company",
        "operator:ja": "東日本旅客鉄道",
        "operator:wikidata": "Q499071",
        "public_transport": "station",
        "railway": "station",
        "ref": "KND",
        "toilets:wheelchair": "yes",
        "train": "yes",
        "wheelchair": "yes",
        "wikidata": "Q800989",
        "wikipedia": "ja:神田駅 (東京都)"
      },
      "geometry": {
        "type": "Point",
        "coordinates": [
          139.7709112,
          35.6917939
        ]
      },
      "id": "node/2558121917"
    },
    {
      "type": "Feature",
      "properties": {
        "@id": "node/2558121920",
        "maxspeed": "95",
        "name": "高円寺",
        "name:en": "Kōenji",
        "name:fr": "Kōenji",
        "name:it": "Koenji",
        "name:ja": "高円寺",
        "name:ja-Hira": "こうえんじ",
        "name:ja-Latn": "Kōenji",
        "name:ko": "고엔지",
        "name:ru": "Коэндзи",
        "operator": "東日本旅客鉄道",
        "platforms": "2",
        "public_transport": "station",
        "railway": "station",
        "ref": "JB06;JC07",
        "train": "yes",
        "wikidata": "Q801056",
        "wikipedia": "ja:高円寺駅"
      },
      "geometry": {
        "type": "Point",
        "coordinates": [
          139.649953,
          35.7053348
        ]
      },
      "id": "node/2558121920"
    },
    {
      "type": "Feature",
      "properties": {
        "@id": "node/2558121925",
        "contact:website": "https://www.jreast.co.jp/estation/station/info.aspx?StationCd=1552",
        "name": "目黒",
        "name:en": "Meguro",
        "name:es": "Meguro",
        "name:it": "Meguro",
        "name:ja": "目黒",
        "name:ja-Hira": "めぐろ",
        "name:ja-Latn": "Meguro",
        "name:ko": "메구로",
        "name:ru": "Мэгуро",
        "name:th": "เมกุโระ",
        "operator": "東日本旅客鉄道",
        "operator:en": "East Japan Railway Company",
        "operator:ja": "東日本旅客鉄道",
        "operator:wikidata": "Q499071",
        "public_transport": "station",
        "railway": "station",
        "ref": "JY22",
        "toilets:wheelchair": "no",
        "train": "yes",
        "wheelchair": "yes",
        "wikidata": "Q678461",
        "wikipedia": "ja:目黒駅"
      },
      "geometry": {
        "type": "Point",
        "coordinates": [
          139.7157332,
          35.6340669
        ]
      },
      "id": "node/2558121925"
    },
    {
      "type": "Feature",
      "properties": {
        "@id": "node/2558121936",
        "maxspeed": "95",
        "name": "荻窪",
        "name:en": "Ogikubo",
        "name:es": "Ogikubo",
        "name:fr": "Ogikubo",
        "name:it": "Ogikubo",
        "name:ja": "荻窪",
        "name:ja-Hira": "おぎくぼ",
        "name:ja-Latn": "Ogikubo",
        "name:ko": "오기쿠보",
        "name:ru": "Огикубо",
        "operator": "東日本旅客鉄道",
        "platforms": "2",
        "public_transport": "station",
        "railway": "station",
        "train": "yes",
        "wheelchair": "yes",
        "wikidata": "Q801294",
        "wikipedia": "ja:荻窪駅"
      },
      "geometry": {
        "type": "Point",
        "coordinates": [
          139.6201587,
          35.7044803
        ]
      },
      "id": "node/2558121936"
    },
    {
      "type": "Feature",
      "properties": {
        "@id": "node/2558121937",
        "maxspeed": "95",
        "name": "両国",
        "name:en": "Ryogoku",
        "name:it": "Ryogoku",
        "name:ja": "両国",
        "name:ja-Hira": "りょうごく",
        "name:ja-Latn": "Ryōgoku",
        "name:ko": "료고쿠",
        "name:ru": "Рёгоку",
        "operator": "東日本旅客鉄道",
        "public_transport": "station",
        "railway": "station",
        "ref": "JB21",
        "toilets:wheelchair": "yes",
        "wheelchair": "limited",
        "wheelchair:description": "車椅子での利用は西口(両国国技館側出口)のみ可能",
        "wikidata": "Q801389",
        "wikipedia": "ja:両国駅"
      },
      "geometry": {
        "type": "Point",
        "coordinates": [
          139.7929667,
          35.6958204
        ]
      },
      "id": "node/2558121937"
    },
    {
      "type": "Feature",
      "properties": {
        "@id": "node/2558121938",
        "maxspeed": "95",
        "name": "千駄ケ谷",
        "name:en": "Sendagaya",
        "name:es": "Sendagaya",
        "name:fr": "Sendagaya",
        "name:it": "Sendagaya",
        "name:ja": "千駄ケ谷",
        "name:ja-Hira": "せんだがや",
        "name:ja-Latn": "Sendagaya",
        "name:ko": "센다가야",
        "name:ru": "Сэндагая",
        "operator": "東日本旅客鉄道",
        "public_transport": "station",
        "railway": "station",
        "ref": "JB12",
        "wikidata": "Q801428",
        "wikipedia": "ja:千駄ケ谷駅"
      },
      "geometry": {
        "type": "Point",
        "coordinates": [
          139.7113637,
          35.6812678
        ]
      },
      "id": "node/2558121938"
    },
    {
      "type": "Feature",
      "properties": {
        "@id": "node/2558121946",
        "maxspeed": "95",
        "name": "水道橋",
        "name:en": "Suidobashi",
        "name:es": "Suidōbashi",
        "name:it": "Suidobashi",
        "name:ja": "水道橋",
        "name:ja-Hira": "すいどうばし",
        "name:ja-Latn": "Suidōbashi",
        "name:ko": "스이도바시",
        "name:ru": "Суйдобаси",
        "name:zh-Hans": "水道桥",
        "operator": "東日本旅客鉄道",
        "public_transport": "station",
        "railway": "station",
        "toilets:wheelchair": "yes",
        "wheelchair": "yes",
        "wikidata": "Q801496",
        "wikipedia": "ja:水道橋駅"
      },
      "geometry": {
        "type": "Point",
        "coordinates": [
          139.7537382,
          35.7020455
        ]
      },
      "id": "node/2558121946"
    },
    {
      "type": "Feature",
      "properties": {
        "@id": "node/2558121954",
        "contact:website": "https://www.jreast.co.jp/estation/station/info.aspx?StationCd=1654",
        "maxspeed": "95",
        "name": "代々木",
        "name:en": "Yoyogi",
        "name:es": "Yoyogi",
        "name:fr": "Yoyogi",
        "name:it": "Yoyogi",
        "name:ja": "代々木",
        "name:ja-Hira": "よよぎ",
        "name:ja-Latn": "Yoyogi",
        "name:ko": "요요기",
        "name:ru": "Ёёги",
        "name:th": "โยโยงิ",
        "operator": "東日本旅客鉄道",
        "operator:en": "East Japan Railway Company",
        "operator:ja": "東日本旅客鉄道",
        "operator:wikidata": "Q499071",
        "public_transport": "station",
        "railway": "station",
        "ref": "JY18;JB11",
        "train": "yes",
        "wheelchair": "no",
        "wikidata": "Q590162",
        "wikipedia": "ja:代々木駅"
      },
      "geometry": {
        "type": "Point",
        "coordinates": [
          139.7020806,
          35.6839514
        ]
      },
      "id": "node/2558121954"
    },
    {
      "type": "Feature",
      "properties": {
        "@id": "node/2558121955",
        "contact:website": "https://www.jreast.co.jp/estation/station/info.aspx?StationCd=1617",
        "name": "有楽町",
        "name:de": "Yūrakuchō",
        "name:en": "Yurakucho",
        "name:es": "Yurakucho",
        "name:fr": "Yūrakuchō",
        "name:it": "Yurakucho",
        "name:ja": "有楽町",
        "name:ja-Hira": "ゆうらくちょう",
        "name:ja-Latn": "Yūrakuchō",
        "name:ko": "유라쿠초",
        "name:ru": "Юракутё",
        "name:th": "ยูราคุโจ",
        "operator": "東日本旅客鉄道",
        "operator:en": "East Japan Railway Company",
        "operator:ja": "東日本旅客鉄道",
        "operator:wikidata": "Q499071",
        "public_transport": "station",
        "railway": "station",
        "ref": "JK25;JY30",
        "wheelchair": "yes",
        "wikidata": "Q801655",
        "wikipedia": "ja:有楽町駅"
      },
      "geometry": {
        "type": "Point",
        "coordinates": [
          139.7630483,
          35.6749598
        ]
      },
      "id": "node/2558121955"
    },
    {
      "type": "Feature",
      "properties": {
        "@id": "node/2559434097",
        "maxspeed": "95",
        "name": "阿佐ケ谷",
        "name:en": "Asagaya",
        "name:it": "Asagaya",
        "name:ja": "阿佐ケ谷",
        "name:ja-Hira": "あさがや",
        "name:ja-Latn": "Asagaya",
        "name:ko": "아사가야",
        "name:ru": "Асагая",
        "operator": "東日本旅客鉄道",
        "platforms": "2",
        "public_transport": "station",
        "railway": "station",
        "source": "KSJ2",
        "toilets:wheelchair": "yes",
        "train": "yes",
        "wheelchair": "yes",
        "wikidata": "Q800402",
        "wikipedia": "ja:阿佐ケ谷駅"
      },
      "geometry": {
        "type": "Point",
        "coordinates": [
          139.6354724,
          35.7048403
        ]
      },
      "id": "node/2559434097"
    },
    {
      "type": "Feature",
      "properties": {
        "@id": "node/2559434134",
        "contact:website": "https://www.jreast.co.jp/estation/station/info.aspx?StationCd=1104",
        "maxspeed": "95",
        "name": "中野",
        "name:de": "Nakano",
        "name:en": "Nakano",
        "name:es": "Nakano",
        "name:fr": "Nakano",
        "name:it": "Nakano",
        "name:ja": "中野",
        "name:ja-Hira": "なかの",
        "name:ja-Latn": "Nakano",
        "name:ko": "나카노",
        "name:ru": "Накано",
        "operator": "東日本旅客鉄道;東京地下鉄",
        "operator:en": "East Japan Railway Company;Tokyo Metro",
        "operator:ja": "東日本旅客鉄道;東京地下鉄",
        "operator:wikidata": "Q499071;Q682894",
        "platforms": "4",
        "public_transport": "station",
        "railway": "station",
        "ref": "JB07;JC06;T01",
        "source": "KSJ2",
        "station": "subway",
        "subway": "yes",
        "train": "yes",
        "wheelchair": "no",
        "wikidata": "Q801234",
        "wikipedia": "ja:中野駅 (東京都)"
      },
      "geometry": {
        "type": "Point",
        "coordinates": [
          139.665537,
          35.7058282
        ]
      },
      "id": "node/2559434134"
    },
    {
      "type": "Feature",
      "properties": {
        "@id": "node/2559434141",
        "maxspeed": "95",
        "name": "西荻窪",
        "name:en": "Nishi-Ogikubo",
        "name:it": "Nishi Ogikubo",
        "name:ja": "西荻窪",
        "name:ja-Hira": "にしおぎくぼ",
        "name:ja-Latn": "Nishi Ogikubo",
        "name:ko": "니시오기쿠보",
        "name:ru": "Ниси-Огикубо",
        "operator": "東日本旅客鉄道",
        "platforms": "2",
        "public_transport": "station",
        "railway": "station",
        "source": "KSJ2",
        "train": "yes",
        "wikidata": "Q801263",
        "wikipedia": "ja:西荻窪駅"
      },
      "geometry": {
        "type": "Point",
        "coordinates": [
          139.5996053,
          35.7037331
        ]
      },
      "id": "node/2559434141"
    },
    {
      "type": "Feature",
      "properties": {
        "@id": "node/2559434143",
        "maxspeed": "95",
        "name": "御茶ノ水",
        "name:en": "Ochanomizu",
        "name:es": "Ochanomizu",
        "name:fr": "Ochanomizu",
        "name:it": "Ochanomizu",
        "name:ja": "御茶ノ水",
        "name:ja-Hira": "おちゃのみず",
        "name:ja-Latn": "Ochanomizu",
        "name:ko": "오차노미즈",
        "name:ru": "Отяномидзу",
        "name:zh": "御茶之水",
        "name:zh-Hans": "御茶之水",
        "operator": "東日本旅客鉄道",
        "operator:en": "East Japan Railway Company",
        "public_transport": "station",
        "railway": "station",
        "source": "Bing, 2007-04",
        "train": "yes",
        "wheelchair": "limited",
        "wikidata": "Q801289",
        "wikipedia": "ja:御茶ノ水駅"
      },
      "geometry": {
        "type": "Point",
        "coordinates": [
          139.7650173,
          35.699598
        ]
      },
      "id": "node/2559434143"
    },
    {
      "type": "Feature",
      "properties": {
        "@id": "node/2559434166",
        "contact:website": "https://www.jreast.co.jp/estation/station/info.aspx?StationCd=938",
        "name": "高田馬場",
        "name:en": "Takadanobaba",
        "name:es": "Takadanobaba",
        "name:fr": "Takadanobaba",
        "name:it": "Takadanobaba",
        "name:ja": "高田馬場",
        "name:ja-Hira": "たかだのばば",
        "name:ja-Latn": "Takadanobaba",
        "name:ko": "다카다노바바",
        "name:ru": "Такаданобаба",
        "name:th": "ทาคาดะโนะบาบะ",
        "note": "National-Land Numerical Information (Railway) 2007, MLIT Japan",
        "operator": "東日本旅客鉄道",
        "operator:en": "East Japan Railway Company",
        "operator:ja": "東日本旅客鉄道",
        "operator:wikidata": "Q499071",
        "public_transport": "station",
        "railway": "station",
        "ref": "JY15",
        "source": "KSJ2",
        "source_ref": "http://nlftp.mlit.go.jp/ksj/jpgis/datalist/KsjTmplt-N02-v1_1.html",
        "toilets:wheelchair": "yes",
        "train": "yes",
        "wheelchair": "yes",
        "wikidata": "Q801506",
        "wikipedia": "ja:高田馬場駅"
      },
      "geometry": {
        "type": "Point",
        "coordinates": [
          139.7036425,
          35.7126839
        ]
      },
      "id": "node/2559434166"
    },
    {
      "type": "Feature",
      "properties": {
        "@id": "node/2620090842",
        "name": "東十条",
        "name:en": "Higashi-Jūjō",
        "name:ja": "東十条",
        "name:ja-Hira": "ひがしじゅうじょう",
        "name:ja_rm": "Higashi Jūjō",
        "name:ko": "히가시주조",
        "name:ru": "Хигаси-Дзюдзё",
        "operator": "東日本旅客鉄道",
        "public_transport": "station",
        "railway": "station",
        "train": "yes",
        "wheelchair": "yes",
        "wikidata": "Q800919",
        "wikipedia": "ja:東十条駅"
      },
      "geometry": {
        "type": "Point",
        "coordinates": [
          139.7268749,
          35.7638484
        ]
      },
      "id": "node/2620090842"
    },
    {
      "type": "Feature",
      "properties": {
        "@id": "node/2723855432",
        "name": "板橋",
        "name:en": "Itabashi",
        "name:ja": "板橋",
        "name:ja-Hira": "いたばし",
        "name:ja_rm": "Itabashi",
        "name:ko": "이타바시",
        "name:zh": "板橋",
        "operator": "東日本旅客鉄道",
        "public_transport": "station",
        "railway": "station",
        "ref": "JA13",
        "wikidata": "Q800966",
        "wikipedia": "ja:板橋駅"
      },
      "geometry": {
        "type": "Point",
        "coordinates": [
          139.7194366,
          35.7452718
        ]
      },
      "id": "node/2723855432"
    },
    {
      "type": "Feature",
      "properties": {
        "@id": "node/2729417341",
        "maxspeed": "100",
        "name": "潮見",
        "name:en": "Shiomi",
        "name:ja": "潮見",
        "name:ja-Hira": "しおみ",
        "name:ja-Latn": "Shiomi",
        "name:ko": "시오미",
        "name:ru": "Сиоми",
        "operator": "東日本旅客鉄道",
        "public_transport": "station",
        "railway": "station",
        "ref": "JE04",
        "train": "yes",
        "usage": "main",
        "website": "https://www.jreast.co.jp/estation/station/info.aspx?StationCd=776",
        "wheelchair": "yes",
        "wikidata": "Q844315",
        "wikipedia": "ja:潮見駅"
      },
      "geometry": {
        "type": "Point",
        "coordinates": [
          139.8171968,
          35.6589236
        ]
      },
      "id": "node/2729417341"
    },
    {
      "type": "Feature",
      "properties": {
        "@id": "node/2729417356",
        "maxspeed": "100",
        "name": "越中島",
        "name:en": "Etchūjima",
        "name:ja": "越中島",
        "name:ja-Hira": "えっちゅうじま",
        "name:ja-Latn": "Etchūjima",
        "name:ko": "엣추지마",
        "name:ru": "Эттюдзима",
        "operator": "東日本旅客鉄道",
        "public_transport": "station",
        "railway": "station",
        "ref": "JE03",
        "usage": "main",
        "website": "https://www.jreast.co.jp/estation/station/info.aspx?StationCd=286",
        "wikidata": "Q844276",
        "wikipedia": "ja:越中島駅"
      },
      "geometry": {
        "type": "Point",
        "coordinates": [
          139.7926094,
          35.6679059
        ]
      },
      "id": "node/2729417356"
    },
    {
      "type": "Feature",
      "properties": {
        "@id": "node/3547330602",
        "name": "蒲田",
        "name:en": "Kamata",
        "name:fr": "Kamata",
        "name:ja": "蒲田",
        "name:ja-Hira": "かまた",
        "name:ja_rm": "Kamata",
        "name:ko": "가마타",
        "name:ru": "Камата",
        "operator": "東日本旅客鉄道",
        "platforms": "2",
        "public_transport": "station",
        "railway": "station",
        "ref": "JK-17",
        "source": "bing 2010",
        "toilets:wheelchair": "yes",
        "wheelchair": "yes",
        "wikidata": "Q800981",
        "wikipedia": "ja:蒲田駅"
      },
      "geometry": {
        "type": "Point",
        "coordinates": [
          139.7158191,
          35.5620151
        ]
      },
      "id": "node/3547330602"
    },
    {
      "type": "Feature",
      "properties": {
        "@id": "node/3547330603",
        "name": "上中里",
        "name:en": "Kami-Nakazato",
        "name:ja": "上中里",
        "name:ja-Hira": "かみなかざと",
        "name:ja_rm": "Kami Nakazato",
        "name:ko": "가미나카자토",
        "name:ru": "Ками-Накадзато",
        "operator": "東日本旅客鉄道",
        "public_transport": "station",
        "railway": "station",
        "source": "Bing",
        "train": "yes",
        "wikidata": "Q910858",
        "wikipedia": "ja:上中里駅"
      },
      "geometry": {
        "type": "Point",
        "coordinates": [
          139.7469796,
          35.746579
        ]
      },
      "id": "node/3547330603"
    },
    {
      "type": "Feature",
      "properties": {
        "@id": "node/3547330606",
        "internet_access": "no",
        "name": "大井町",
        "name:en": "Ōimachi",
        "name:fr": "Ōimachi",
        "name:ja": "大井町",
        "name:ja-Hira": "おおいまち",
        "name:ja_rm": "Ōimachi",
        "name:ko": "오이마치",
        "name:ru": "Оимати",
        "network": "京浜東北線",
        "operator": "東日本旅客鉄道",
        "public_transport": "station",
        "railway": "station",
        "ref": "JK19",
        "train": "yes",
        "wheelchair": "yes",
        "wikidata": "Q801690",
        "wikipedia": "ja:大井町駅"
      },
      "geometry": {
        "type": "Point",
        "coordinates": [
          139.7348903,
          35.6063813
        ]
      },
      "id": "node/3547330606"
    },
    {
      "type": "Feature",
      "properties": {
        "@id": "node/3547330607",
        "name": "王子",
        "name:en": "Ōji",
        "name:fr": "Ōji",
        "name:ja-Hira": "おうじ",
        "name:ja-Latn": "Ōji",
        "name:ko": "오지",
        "name:ru": "Одзи",
        "name:zh": "王子",
        "operator": "東日本旅客鉄道",
        "operator:en": "East Japan Railway Company",
        "public_transport": "station",
        "railway": "station",
        "ref": "JK36",
        "train": "yes",
        "website": "https://www.jreast.co.jp/estation/station/info.aspx?StationCd=301",
        "wheelchair": "yes",
        "wikidata": "Q801689",
        "wikipedia": "ja:王子駅"
      },
      "geometry": {
        "type": "Point",
        "coordinates": [
          139.7382749,
          35.7523466
        ]
      },
      "id": "node/3547330607"
    },
    {
      "type": "Feature",
      "properties": {
        "@id": "node/3547330608",
        "name": "大森",
        "name:en": "Ōmori",
        "name:fr": "Ōmori",
        "name:ja": "大森",
        "name:ja-Hira": "おおもり",
        "name:ja_rm": "Ōmori",
        "name:ko": "오모리",
        "name:ru": "Омори",
        "operator": "東日本旅客鉄道",
        "public_transport": "station",
        "railway": "station",
        "wheelchair": "yes",
        "wikidata": "Q80420",
        "wikipedia": "ja:大森駅 (東京都)"
      },
      "geometry": {
        "type": "Point",
        "coordinates": [
          139.7279334,
          35.5884735
        ]
      },
      "id": "node/3547330608"
    },
    {
      "type": "Feature",
      "properties": {
        "@id": "node/3692259388",
        "contact:website": "https://www.jreast.co.jp/estation/station/info.aspx?StationCd=1149",
        "name": "西大井",
        "name:en": "Nishi-Oi",
        "name:ja": "西大井",
        "name:ja-Hira": "にしおおい",
        "name:ja-Latn": "Nishi-Ōi",
        "name:ko": "니시 오이",
        "operator": "東日本旅客鉄道",
        "public_transport": "station",
        "railway": "station",
        "ref": "JO16;JS16",
        "wikidata": "Q844193",
        "wikipedia": "ja:西大井駅"
      },
      "geometry": {
        "type": "Point",
        "coordinates": [
          139.721669,
          35.60186
        ]
      },
      "id": "node/3692259388"
    },
    {
      "type": "Feature",
      "properties": {
        "@id": "node/3693272761",
        "name": "尾久",
        "name:en": "Oku",
        "name:fr": "Oku",
        "name:ja": "尾久",
        "name:ja-Hira": "おく",
        "name:ja-Latn": "Oku",
        "name:ko": "오쿠",
        "name:ru": "Оку",
        "name:zh": "尾久站",
        "operator": "東日本旅客鉄道",
        "public_transport": "station",
        "railway": "station",
        "ref": "JU03",
        "source": "KSJ2",
        "train": "yes",
        "wheelchair": "yes",
        "wikidata": "Q845113",
        "wikipedia": "ja:尾久駅"
      },
      "geometry": {
        "type": "Point",
        "coordinates": [
          139.7536603,
          35.7469091
        ]
      },
      "id": "node/3693272761"
    },
    {
      "type": "Feature",
      "properties": {
        "@id": "node/3708279828",
        "contact:website": "https://www.jreast.co.jp/estation/station/info.aspx?StationCd=976",
        "name": "田町",
        "name:en": "Tamachi",
        "name:fr": "Tamachi",
        "name:it": "Tamachi",
        "name:ja": "田町",
        "name:ja-Hira": "たまち",
        "name:ja-Latn": "Tamachi",
        "name:ko": "다마치",
        "name:ru": "Тамати",
        "name:th": "ทามาจิ",
        "operator": "東日本旅客鉄道",
        "operator:en": "East Japan Railway Company",
        "public_transport": "station",
        "railway": "station",
        "ref": "JK22;JY27",
        "source": "Bing 2010",
        "toilets:wheelchair": "yes",
        "train": "yes",
        "wheelchair": "yes",
        "wikidata": "Q801510",
        "wikipedia": "ja:田町駅"
      },
      "geometry": {
        "type": "Point",
        "coordinates": [
          139.7476833,
          35.6457358
        ]
      },
      "id": "node/3708279828"
    },
    {
      "type": "Feature",
      "properties": {
        "@id": "node/3730429174",
        "maxspeed": "100",
        "name": "新木場",
        "name:en": "Shin-Kiba",
        "name:es": "Shin-Kiba",
        "name:ja": "新木場",
        "name:ja-Hira": "しんきば",
        "name:ja-Latn": "Shin-kiba",
        "name:ko": "신키바",
        "name:ru": "Син-Киба",
        "network": "JR京葉線",
        "operator": "東日本旅客鉄道",
        "public_transport": "station",
        "railway": "station",
        "ref": "JE05",
        "train": "yes",
        "usage": "main",
        "website": "https://www.jreast.co.jp/estation/station/info.aspx?StationCd=859",
        "wheelchair": "yes",
        "wikidata": "Q1376066",
        "wikipedia": "ja:新木場駅"
      },
      "geometry": {
        "type": "Point",
        "coordinates": [
          139.8274057,
          35.6461534
        ]
      },
      "id": "node/3730429174"
    },
    {
      "type": "Feature",
      "properties": {
        "@id": "node/4011643453",
        "contact:website": "https://www.jreast.co.jp/estation/station/info.aspx?StationCd=877",
        "name": "新橋",
        "name:de": "Shimbashi",
        "name:en": "Shimbashi",
        "name:es": "Shimbashi",
        "name:fr": "Shimbashi",
        "name:it": "Shimbashi",
        "name:ja": "新橋",
        "name:ja-Hira": "しんばし",
        "name:ja-Latn": "Shimbashi",
        "name:ko": "신바시",
        "name:ru": "Симбаси",
        "name:th": "ชิมบาชิ",
        "operator": "東日本旅客鉄道",
        "operator:en": "East Japan Railway Company",
        "operator:ja": "東日本旅客鉄道",
        "operator:wikidata": "Q499071",
        "public_transport": "station",
        "railway": "station",
        "ref": "SMB",
        "wikidata": "Q801436",
        "wikipedia": "ja:新橋駅"
      },
      "geometry": {
        "type": "Point",
        "coordinates": [
          139.7582202,
          35.6661713
        ]
      },
      "id": "node/4011643453"
    },
    {
      "type": "Feature",
      "properties": {
        "@id": "node/4011643454",
        "contact:website": "https://www.jreast.co.jp/estation/station/info.aspx?StationCd=788",
        "name": "品川",
        "name:de": "Shinagawa",
        "name:en": "Shinagawa",
        "name:fr": "Shinagawa",
        "name:it": "Shinagawa",
        "name:ja": "品川",
        "name:ja-Hira": "しながわ",
        "name:ja-Latn": "Shinagawa",
        "name:ko": "시나가와",
        "name:ru": "Синагава",
        "name:th": "ชินางาวะ",
        "name:zh": "品川",
        "operator": "東日本旅客鉄道",
        "operator:en": "East Japan Railway Company",
        "operator:ja": "東日本旅客鉄道",
        "operator:wikidata": "Q499071",
        "public_transport": "station",
        "railway": "station",
        "railway:traffic_mode": "passenger",
        "ref": "SGW",
        "wikidata": "Q801442",
        "wikipedia": "ja:品川駅"
      },
      "geometry": {
        "type": "Point",
        "coordinates": [
          139.7391673,
          35.6286688
        ]
      },
      "id": "node/4011643454"
    },
    {
      "type": "Feature",
      "properties": {
        "@id": "node/5254306690",
        "name": "金町",
        "name:en": "Kanamachi",
        "name:ja": "金町",
        "name:ja-Hira": "かなまち",
        "name:ja_rm": "Kanamachi",
        "name:ko": "가나마치",
        "operator": "東日本旅客鉄道",
        "public_transport": "station",
        "railway": "station",
        "train": "yes",
        "wikidata": "Q1952878",
        "wikipedia": "ja:金町駅"
      },
      "geometry": {
        "type": "Point",
        "coordinates": [
          139.8706926,
          35.7695843
        ]
      },
      "id": "node/5254306690"
    },
    {
      "type": "Feature",
      "properties": {
        "@id": "node/5318592733",
        "addr:block_number": "3",
        "addr:city": "品川区",
        "addr:housenumber": "22",
        "addr:neighbourhood": "3丁目",
        "addr:postcode": "140-0003",
        "addr:province": "東京都",
        "addr:quarter": "八潮",
        "name": "東京貨物ターミナル",
        "name:en": "Tokyo Freight Terminal",
        "name:es": "Terminal de carga de Tokio",
        "name:ja": "東京貨物ターミナル",
        "name:ja-Hira": "とうきょうかもつたーみなる",
        "name:ko": "도쿄화물터미널",
        "operator": "JR貨物",
        "railway": "station",
        "wikidata": "Q5355904",
        "wikipedia": "ja:東京貨物ターミナル駅"
      },
      "geometry": {
        "type": "Point",
        "coordinates": [
          139.7577909,
          35.595856
        ]
      },
      "id": "node/5318592733"
    },
    {
      "type": "Feature",
      "properties": {
        "@id": "node/6237955644",
        "level": "1",
        "name": "北千住",
        "name:en": "Kita-Senju",
        "name:es": "Kita-Senju",
        "name:ja": "北千住",
        "name:ja-Hira": "きたせんじゅ",
        "name:ja-Latn": "Kita Senju",
        "name:ko": "기타센주",
        "name:ru": "Кита Сэндзю",
        "name:th": "คิตะเซ็นจู",
        "operator": "東日本旅客鉄道",
        "operator:en": "East Japan Railway Company",
        "operator:ja": "東日本旅客鉄道",
        "operator:wikidata": "Q499071",
        "public_transport": "station",
        "railway": "station",
        "ref": "JJ05",
        "source": "knowledge",
        "toilets:wheelchair": "yes",
        "train": "yes",
        "wheelchair": "yes",
        "wikidata": "Q801026",
        "wikipedia": "ja:北千住駅"
      },
      "geometry": {
        "type": "Point",
        "coordinates": [
          139.8047536,
          35.748916
        ]
      },
      "id": "node/6237955644"
    },
    {
      "type": "Feature",
      "properties": {
        "@id": "node/6449441183",
        "maxspeed": "100",
        "name": "八丁堀",
        "name:en": "Hatchōbori",
        "name:es": "Hatchōbori",
        "name:ja": "八丁堀",
        "name:ja-Hira": "はっちょうぼり",
        "name:ja-Latn": "Hatchōbori",
        "name:ko": "핫초보리",
        "name:ru": "Хаттёбори",
        "operator": "東日本旅客鉄道",
        "public_transport": "station",
        "railway": "station",
        "ref": "JE02",
        "usage": "main",
        "website": "https://www.jreast.co.jp/estation/station/info.aspx?StationCd=1236",
        "wheelchair": "limited",
        "wikidata": "Q1073008",
        "wikipedia": "ja:八丁堀駅 (東京都)"
      },
      "geometry": {
        "type": "Point",
        "coordinates": [
          139.7776565,
          35.6746238
        ]
      },
      "id": "node/6449441183"
    },
    {
      "type": "Feature",
      "properties": {
        "@id": "node/6780109836",
        "addr:block_number": "17",
        "addr:city": "千代田区",
        "addr:housenumber": "6",
        "addr:neighbourhood": "外神田一丁目",
        "addr:postcode": "101-0021",
        "addr:province": "東京都",
        "name": "秋葉原",
        "name:de": "Akihabara",
        "name:en": "Akihabara",
        "name:es": "Akihabara",
        "name:fr": "Akihabara",
        "name:it": "Akihabara",
        "name:ja": "秋葉原",
        "name:ja-Hira": "あきはばら",
        "name:ja-Latn": "Akihabara",
        "name:ko": "아키하바라",
        "name:th": "อากิฮาบาระ",
        "name:zh": "秋葉原",
        "name:zh-Hans": "秋叶原",
        "operator": "東日本旅客鉄道",
        "public_transport": "station",
        "railway": "station",
        "ref": "AKB",
        "train": "yes",
        "wikidata": "Q800374",
        "wikipedia": "ja:秋葉原駅"
      },
      "geometry": {
        "type": "Point",
        "coordinates": [
          139.7730325,
          35.6983666
        ]
      },
      "id": "node/6780109836"
    },
    {
      "type": "Feature",
      "properties": {
        "@id": "node/6806051378",
        "contact:website": "https://www.jreast.co.jp/estation/station/info.aspx?StationCd=1256",
        "name": "原宿",
        "name:en": "Harajuku",
        "name:es": "Harajuku",
        "name:fr": "Harajuku",
        "name:it": "Harajuku",
        "name:ja": "原宿",
        "name:ja-Hira": "はらじゅく",
        "name:ja-Latn": "Harajuku",
        "name:ko": "하라주쿠",
        "name:ru": "Харадзюку",
        "name:th": "ฮาราจูกุ",
        "name:zh": "原宿",
        "operator": "東日本旅客鉄道",
        "operator:en": "East Japan Railway Company",
        "operator:ja": "東日本旅客鉄道",
        "operator:wikidata": "Q499071",
        "public_transport": "station",
        "railway": "station",
        "ref": "JY19",
        "wheelchair": "limited",
        "wikidata": "Q800894",
        "wikipedia": "ja:原宿駅"
      },
      "geometry": {
        "type": "Point",
        "coordinates": [
          139.7024266,
          35.6702145
        ]
      },
      "id": "node/6806051378"
    },
    {
      "type": "Feature",
      "properties": {
        "@id": "node/7034774100",
        "name": "十条",
        "name:en": "Jūjō",
        "name:ja": "十条",
        "name:ja-Hira": "じゅうじょう",
        "name:ja-Latn": "Jūjō",
        "name:ko": "주조",
        "operator": "東日本旅客鉄道",
        "public_transport": "station",
        "railway": "station",
        "ref": "JA14",
        "train": "yes",
        "wheelchair": "yes",
        "wikidata": "Q800975",
        "wikipedia": "ja:十条駅 (東京都)"
      },
      "geometry": {
        "type": "Point",
        "coordinates": [
          139.7223074,
          35.7600083
        ]
      },
      "id": "node/7034774100"
    },
    {
      "type": "Feature",
      "properties": {
        "@id": "node/7179667422",
        "name": "亀有",
        "name:en": "Kameari",
        "name:ja": "亀有",
        "name:ja-Hira": "かめあり",
        "name:ja_rm": "Kameari",
        "name:ko": "가메아리",
        "operator": "東日本旅客鉄道",
        "public_transport": "station",
        "railway": "station",
        "ref": "JL20",
        "source": "Bing 2010",
        "train": "yes",
        "wikidata": "Q1952873",
        "wikipedia": "ja:亀有駅"
      },
      "geometry": {
        "type": "Point",
        "coordinates": [
          139.8478007,
          35.7666652
        ]
      },
      "id": "node/7179667422"
    },
    {
      "type": "Feature",
      "properties": {
        "@id": "node/7502284289",
        "contact:website": "https://www.jreast.co.jp/estation/station/info.aspx?StationCd=1750",
        "name": "高輪ゲートウェイ",
        "name:en": "Takanawa Gateway",
        "name:fr": "Takanawa Gateway",
        "name:it": "Takanawa Gateway",
        "name:ja": "高輪ゲートウェイ",
        "name:ko": "다카나와게이트웨이",
        "name:th": "ทาคานาวะ เกตเวย์",
        "name:zh": "高轮Gateway",
        "name:zh-Hans": "高轮Gateway",
        "name:zh-Hant": "高輪Gateway",
        "operator": "東日本旅客鉄道",
        "operator:en": "East Japan Railway Company",
        "operator:ja": "東日本旅客鉄道",
        "operator:wikidata": "Q499071",
        "public_transport": "station",
        "railway": "station",
        "ref": "TGW",
        "start_date": "2020-03-14",
        "train": "yes",
        "wikidata": "Q38278207",
        "wikipedia": "ja:高輪ゲートウェイ"
      },
      "geometry": {
        "type": "Point",
        "coordinates": [
          139.7406642,
          35.635399
        ]
      },
      "id": "node/7502284289"
    },
    {
      "type": "Feature",
      "properties": {
        "@id": "node/7792004174",
        "name": "品川",
        "name:de": "Shinagawa",
        "name:en": "Shinagawa",
        "name:fr": "Shinagawa",
        "name:it": "Shinagawa",
        "name:ja": "品川",
        "name:ja-Hira": "しながわ",
        "name:ja-Latn": "Shinagawa",
        "name:ko": "시나가와",
        "name:ru": "Синагава",
        "name:th": "ชินางาวะ",
        "network": "東海道新幹線",
        "operator": "JR東海",
        "public_transport": "station",
        "railway": "station",
        "wheelchair": "yes"
      },
      "geometry": {
        "type": "Point",
        "coordinates": [
          139.7400659,
          35.6286457
        ]
      },
      "id": "node/7792004174"
    },
    {
      "type": "Feature",
      "properties": {
        "@id": "node/7808533560",
        "description": "東日本旅客鉄道中央・総武線各駅停車中野駅",
        "maxspeed": "95",
        "name": "東中野",
        "name:en": "Higashi-Nakano",
        "name:it": "Higashi-Nakano",
        "name:ja": "東中野",
        "name:ja-Hira": "ひがしなかの",
        "name:ja-Latn": "Higashi Nakano",
        "name:ko": "히가시나카노",
        "name:ru": "Хигаси Накано",
        "operator": "東日本旅客鉄道",
        "operator:en": "East Japan Railway",
        "operator:ja": "東日本旅客鉄道",
        "operator:ja-Latn": "Higashi-Nihon Ryokaku Tetsudō",
        "operator:ja_rm": "Higashi-Nihon Ryokaku Tetsudō",
        "public_transport": "station",
        "railway": "station",
        "wikidata": "Q800921",
        "wikipedia": "ja:東中野駅"
      },
      "geometry": {
        "type": "Point",
        "coordinates": [
          139.6848675,
          35.7062503
        ]
      },
      "id": "node/7808533560"
    },
    {
      "type": "Feature",
      "properties": {
        "@id": "node/7865838622",
        "contact:website": "https://www.jreast.co.jp/estation/station/info.aspx?StationCd=862",
        "maxspeed": "95",
        "name": "新小岩",
        "name:en": "Shin-Koiwa",
        "name:it": "Shin-Koiwa",
        "name:ja": "新小岩",
        "name:ja-Hira": "しんこいわ",
        "name:ja-Latn": "Shin-Koiwa",
        "name:ko": "신코이와",
        "name:ru": "Син-Коива",
        "operator": "東日本旅客鉄道",
        "public_transport": "station",
        "railway": "station",
        "ref": "JB25;JO23",
        "voltage": "1500",
        "wheelchair": "yes",
        "wikidata": "Q1063750",
        "wikipedia": "ja:新小岩駅"
      },
      "geometry": {
        "type": "Point",
        "coordinates": [
          139.8579762,
          35.7169396
        ]
      },
      "id": "node/7865838622"
    },
    {
      "type": "Feature",
      "properties": {
        "@id": "node/7865838626",
        "maxspeed": "95",
        "name": "平井",
        "name:en": "Hirai",
        "name:it": "Hirai",
        "name:ja": "平井",
        "name:ja-Hira": "ひらい",
        "name:ja-Latn": "Hirai",
        "name:ko": "히라이",
        "name:ru": "Хираи",
        "operator": "東日本旅客鉄道",
        "public_transport": "station",
        "railway": "station",
        "wikidata": "Q909531",
        "wikipedia": "ja:平井駅 (東京都)"
      },
      "geometry": {
        "type": "Point",
        "coordinates": [
          139.8425004,
          35.706421
        ]
      },
      "id": "node/7865838626"
    },
    {
      "type": "Feature",
      "properties": {
        "@id": "node/7865838635",
        "contact:website": "https://www.jreast.co.jp/estation/station/info.aspx?StationCd=609",
        "maxspeed": "95",
        "name": "錦糸町",
        "name:en": "Kinshicho",
        "name:it": "Kinshicho",
        "name:ja": "錦糸町",
        "name:ja-Hira": "きんしちょう",
        "name:ja-Latn": "Kinshichō",
        "name:ko": "긴시초",
        "name:ru": "Кинситё",
        "name:zh": "锦丝町",
        "name:zh-Hans": "锦丝町",
        "name:zh-Hant": "錦絲町",
        "operator": "東日本旅客鉄道",
        "public_transport": "station",
        "railway": "station",
        "ref": "JB22;JO22",
        "source": "KSJ2",
        "voltage": "1500",
        "wikidata": "Q801017",
        "wikipedia": "ja:錦糸町駅"
      },
      "geometry": {
        "type": "Point",
        "coordinates": [
          139.8139559,
          35.6967489
        ]
      },
      "id": "node/7865838635"
    },
    {
      "type": "Feature",
      "properties": {
        "@id": "node/7865838637",
        "maxspeed": "95",
        "name": "浅草橋",
        "name:en": "Asakusabashi",
        "name:it": "Asakusabashi",
        "name:ja": "浅草橋",
        "name:ja-Hira": "あさくさばし",
        "name:ja-Latn": "Asakusabashi",
        "name:ko": "아사쿠사바시",
        "name:ru": "Асакусабаси",
        "name:zh": "浅草桥",
        "name:zh-Hans": "浅草桥",
        "operator": "東日本旅客鉄道",
        "public_transport": "station",
        "railway": "station",
        "wikidata": "Q800404",
        "wikipedia": "ja:浅草橋駅"
      },
      "geometry": {
        "type": "Point",
        "coordinates": [
          139.7846842,
          35.6974062
        ]
      },
      "id": "node/7865838637"
    },
    {
      "type": "Feature",
      "properties": {
        "@id": "node/7865838639",
        "maxspeed": "95",
        "name": "信濃町",
        "name:en": "Shinanomachi",
        "name:es": "Shinanomachi",
        "name:fr": "Shinanomachi",
        "name:it": "Shinanomachi",
        "name:ja": "信濃町",
        "name:ja-Hira": "しなのまち",
        "name:ja-Latn": "Shinanomachi",
        "name:ko": "시나노마치",
        "name:ru": "Синаномати",
        "operator": "東日本旅客鉄道",
        "public_transport": "station",
        "railway": "station",
        "wheelchair": "yes",
        "wikidata": "Q335677",
        "wikipedia": "ja:信濃町駅"
      },
      "geometry": {
        "type": "Point",
        "coordinates": [
          139.7204947,
          35.6800236
        ]
      },
      "id": "node/7865838639"
    },
    {
      "type": "Feature",
      "properties": {
        "@id": "node/7865838640",
        "maxspeed": "95",
        "name": "大久保",
        "name:en": "Okubo",
        "name:it": "Okubo",
        "name:ja": "大久保",
        "name:ja-Hira": "おおくぼ",
        "name:ja-Latn": "Ōkubo",
        "name:ko": "오쿠보",
        "name:ru": "Окубо",
        "operator": "東日本旅客鉄道",
        "public_transport": "station",
        "railway": "station",
        "ref": "JB09",
        "wikidata": "Q116259",
        "wikipedia": "ja:大久保駅 (東京都)"
      },
      "geometry": {
        "type": "Point",
        "coordinates": [
          139.6973178,
          35.7007776
        ]
      },
      "id": "node/7865838640"
    },
    {
      "type": "Feature",
      "properties": {
        "@id": "node/7942251386",
        "contact:website": "https://www.jreast.co.jp/estation/station/info.aspx?StationCd=875",
        "name": "新日本橋",
        "name:en": "Shin-Nihombashi",
        "name:es": "Shin-Nihombashi",
        "name:it": "Shin-Nihombashi",
        "name:ja": "新日本橋",
        "name:ja-Hira": "しんにほんばし",
        "name:ja-Latn": "Shin-Nihombashi",
        "name:ko": "신니혼바시",
        "name:ru": "Син-Нихомбаси",
        "name:zh": "新日本橋",
        "name:zh-Hans": "新日本桥",
        "operator": "東日本旅客鉄道",
        "public_transport": "station",
        "railway": "station",
        "ref": "JO20",
        "voltage": "1500",
        "wikidata": "Q844148",
        "wikipedia": "ja:新日本橋駅"
      },
      "geometry": {
        "type": "Point",
        "coordinates": [
          139.7741939,
          35.6890005
        ]
      },
      "id": "node/7942251386"
    },
    {
      "type": "Feature",
      "properties": {
        "@id": "node/7942251391",
        "contact:website": "https://www.jreast.co.jp/estation/station/info.aspx?StationCd=1220",
        "name": "馬喰町",
        "name:en": "Bakurochō",
        "name:es": "Bakurochō",
        "name:it": "Bakurocho",
        "name:ja": "馬喰町",
        "name:ja-Hira": "ばくろちょう",
        "name:ja-Latn": "Bakurochō",
        "name:ko": "바쿠로초",
        "name:ru": "Бакуротё",
        "name:zh": "马喰町",
        "name:zh-Hans": "马喰町",
        "operator": "東日本旅客鉄道",
        "public_transport": "station",
        "railway": "station",
        "ref": "JO21",
        "voltage": "1500",
        "wikidata": "Q844182",
        "wikipedia": "ja:馬喰町駅"
      },
      "geometry": {
        "type": "Point",
        "coordinates": [
          139.7824352,
          35.6933714
        ]
      },
      "id": "node/7942251391"
    },
    {
      "type": "Feature",
      "properties": {
        "@id": "node/11329319854",
        "highspeed": "yes",
        "name": "東京",
        "name:en": "Tokyo",
        "name:ja": "東京",
        "name:ko": "도쿄",
        "name:zh": "東京",
        "name:zh-Hans": "东京",
        "name:zh-Hant": "東京",
        "note": "This station is for JRE operated high speed train (新幹線 or shinkansen), such as joetsu shinkansen line, tohoku shinkansen line",
        "operator": "東日本旅客鉄道",
        "operator:en": "East Japan Railway Company",
        "public_transport": "station",
        "railway": "station",
        "wheelchair": "yes"
      },
      "geometry": {
        "type": "Point",
        "coordinates": [
          139.7674549,
          35.6811412
        ]
      },
      "id": "node/11329319854"
    },
    {
      "type": "Feature",
      "properties": {
        "@id": "node/12985575683",
        "access": "private",
        "description": "蒲田トレーニングセンターに設置された訓練駅",
        "name": "大田",
        "name:ja": "大田",
        "name:ja-Hira": "おおた",
        "name:ko": "오타",
        "name:zh": "大田",
        "operator": "東日本旅客鉄道株式会社",
        "public_transport": "station",
        "railway": "station",
        "ref": "KTC01",
        "usage": "training"
      },
      "geometry": {
        "type": "Point",
        "coordinates": [
          139.7136914,
          35.5574873
        ]
      },
      "id": "node/12985575683"
    },
    {
      "type": "Feature",
      "properties": {
        "@id": "node/12985575684",
        "access": "private",
        "description": "蒲田トレーニングセンターに設置された訓練駅",
        "name": "志茂田",
        "name:ja": "志茂田",
        "name:ja-Hira": "しもだ",
        "name:ko": "시모다",
        "operator": "東日本旅客鉄道株式会社",
        "public_transport": "station",
        "railway": "station",
        "ref": "KTC02",
        "usage": "training"
      },
      "geometry": {
        "type": "Point",
        "coordinates": [
          139.7120039,
          35.5565786
        ]
      },
      "id": "node/12985575684"
    },
    {
      "type": "Feature",
      "properties": {
        "@id": "node/13731947846",
        "highspeed": "yes",
        "name": "東京",
        "name:en": "Tokyo",
        "name:ja": "東京",
        "name:ko": "도쿄",
        "name:zh": "東京",
        "name:zh-Hans": "东京",
        "name:zh-Hant": "東京",
        "network": "京葉線",
        "note": "This station is for JRE operated high speed train (新幹線 or shinkansen), such as joetsu shinkansen line, tohoku shinkansen line",
        "operator": "東日本旅客鉄道",
        "operator:en": "East Japan Railway Company",
        "public_transport": "station",
        "railway": "station",
        "wheelchair": "yes"
      },
      "geometry": {
        "type": "Point",
        "coordinates": [
          139.7651006,
          35.6776775
        ]
      },
      "id": "node/13731947846"
    }
  ]
}